{
  "type": "FeatureCollection",
  "features": [
    {
      "type": "Feature",
      "properties": {
        "norad_id": 29268,
        "name": "ARIRANG-2 (KOMPSAT-2)",
        "group": "resource",
        "lat": -80.17270200773403,
        "lon": -124.74785664003693,
        "alt_km": 676.788603756333,
        "timestamp": "2025-12-20T14:38:01.614985+00:00",
        "meta_object_name": "ARIRANG-2 (KOMPSAT-2)",
        "meta_object_id": "2006-031A",
        "meta_epoch": "2025-12-20T07:36:22.314816",
        "meta_mean_motion": 14.6449869,
        "meta_eccentricity": 0.00131814,
        "meta_inclination": 97.8253,
        "meta_ra_of_asc_node": 182.42,
        "meta_arg_of_pericenter": 283.0743,
        "meta_mean_anomaly": 250.0582,
        "meta_ephemeris_type": 0,
        "meta_classification_type": "U",
        "meta_norad_cat_id": 29268,
        "meta_element_set_no": 999,
        "meta_rev_at_epoch": 3529,
        "meta_bstar": -1.1251353e-05,
        "meta_mean_motion_dot": -1.05e-06,
        "meta_mean_motion_ddot": 0,
        "tle_line1": "1 29268U 06031A   25354.31692494 -.00000105  00000+0 -11251-4 0  9995",
        "tle_line2": "2 29268  97.8253 182.4200 0013181 283.0743 250.0582 14.64498690 35293"
      },
      "geometry": {
        "type": "Point",
        "coordinates": [
          -124.74785664003693,
          -80.17270200773403
        ]
      }
    },
    {
      "type": "Feature",
      "properties": {
        "norad_id": 29709,
        "name": "LAPAN-TUBSAT",
        "group": "resource",
        "lat": 81.86915121026237,
        "lon": -105.58685695442885,
        "alt_km": 596.7549613235105,
        "timestamp": "2025-12-20T14:38:01.614996+00:00",
        "meta_object_name": "LAPAN-TUBSAT",
        "meta_object_id": "2007-001A",
        "meta_epoch": "2025-12-20T06:08:55.856256",
        "meta_mean_motion": 14.85679996,
        "meta_eccentricity": 0.00133638,
        "meta_inclination": 98.1251,
        "meta_ra_of_asc_node": 344.5673,
        "meta_arg_of_pericenter": 51.8762,
        "meta_mean_anomaly": 308.3655,
        "meta_ephemeris_type": 0,
        "meta_classification_type": "U",
        "meta_norad_cat_id": 29709,
        "meta_element_set_no": 999,
        "meta_rev_at_epoch": 2458,
        "meta_bstar": 4.7666326e-05,
        "meta_mean_motion_dot": 3.56e-06,
        "meta_mean_motion_ddot": 0,
        "tle_line1": "1 29709U 07001A   25354.25620204  .00000356  00000+0  47666-4 0  9991",
        "tle_line2": "2 29709  98.1251 344.5673 0013363  51.8762 308.3655 14.85679996 24585"
      },
      "geometry": {
        "type": "Point",
        "coordinates": [
          -105.58685695442885,
          81.86915121026237
        ]
      }
    },
    {
      "type": "Feature",
      "properties": {
        "norad_id": 31113,
        "name": "HAIYANG-1B",
        "group": "resource",
        "lat": -46.76495465164021,
        "lon": 149.59583340942987,
        "alt_km": 803.7541630968799,
        "timestamp": "2025-12-20T14:38:01.615008+00:00",
        "meta_object_name": "HAIYANG-1B",
        "meta_object_id": "2007-010A",
        "meta_epoch": "2025-12-19T12:24:07.786656",
        "meta_mean_motion": 14.30967225,
        "meta_eccentricity": 0.0013939,
        "meta_inclination": 98.332,
        "meta_ra_of_asc_node": 337.5151,
        "meta_arg_of_pericenter": 18.7934,
        "meta_mean_anomaly": 341.3762,
        "meta_ephemeris_type": 0,
        "meta_classification_type": "U",
        "meta_norad_cat_id": 31113,
        "meta_element_set_no": 999,
        "meta_rev_at_epoch": 97493,
        "meta_bstar": 4.3711e-05,
        "meta_mean_motion_dot": 7.3e-07,
        "meta_mean_motion_ddot": 0,
        "tle_line1": "1 31113U 07010A   25353.51675679  .00000073  00000+0  43711-4 0  9990",
        "tle_line2": "2 31113  98.3320 337.5151 0013939  18.7934 341.3762 14.30967225974935"
      },
      "geometry": {
        "type": "Point",
        "coordinates": [
          149.59583340942987,
          -46.76495465164021
        ]
      }
    },
    {
      "type": "Feature",
      "properties": {
        "norad_id": 31598,
        "name": "COSMO-SKYMED 1",
        "group": "resource",
        "lat": -27.688202922606575,
        "lon": -175.769684880015,
        "alt_km": 586.0530528075542,
        "timestamp": "2025-12-20T14:38:01.615019+00:00",
        "meta_object_name": "COSMO-SKYMED 1",
        "meta_object_id": "2007-023A",
        "meta_epoch": "2025-12-20T06:43:52.614048",
        "meta_mean_motion": 14.95820698,
        "meta_eccentricity": 0.00015784,
        "meta_inclination": 97.8837,
        "meta_ra_of_asc_node": 179.7292,
        "meta_arg_of_pericenter": 84.2773,
        "meta_mean_anomaly": 275.8628,
        "meta_ephemeris_type": 0,
        "meta_classification_type": "U",
        "meta_norad_cat_id": 31598,
        "meta_element_set_no": 999,
        "meta_rev_at_epoch": 303,
        "meta_bstar": 0.00027225827,
        "meta_mean_motion_dot": 2.98e-05,
        "meta_mean_motion_ddot": 0,
        "tle_line1": "1 31598U 07023A   25354.28047007  .00002980  00000+0  27226-3 0  9995",
        "tle_line2": "2 31598  97.8837 179.7292 0001578  84.2773 275.8628 14.95820698  3035"
      },
      "geometry": {
        "type": "Point",
        "coordinates": [
          -175.769684880015,
          -27.688202922606575
        ]
      }
    },
    {
      "type": "Feature",
      "properties": {
        "norad_id": 31698,
        "name": "TERRASAR-X",
        "group": "resource",
        "lat": -70.19029332696337,
        "lon": 21.163029644463943,
        "alt_km": 516.9082381974295,
        "timestamp": "2025-12-20T14:38:01.615030+00:00",
        "meta_object_name": "TERRASAR-X",
        "meta_object_id": "2007-026A",
        "meta_epoch": "2025-12-19T12:04:27.729408",
        "meta_mean_motion": 15.19152518,
        "meta_eccentricity": 0.0001854,
        "meta_inclination": 97.4454,
        "meta_ra_of_asc_node": 358.785,
        "meta_arg_of_pericenter": 93.3795,
        "meta_mean_anomaly": 266.7652,
        "meta_ephemeris_type": 0,
        "meta_classification_type": "U",
        "meta_norad_cat_id": 31698,
        "meta_element_set_no": 999,
        "meta_rev_at_epoch": 2594,
        "meta_bstar": 3.366e-05,
        "meta_mean_motion_dot": 6.4e-06,
        "meta_mean_motion_ddot": 0,
        "tle_line1": "1 31698U 07026A   25353.50309872  .00000640  00000+0  33660-4 0  9995",
        "tle_line2": "2 31698  97.4454 358.7850 0001854  93.3795 266.7652 15.19152518 25944"
      },
      "geometry": {
        "type": "Point",
        "coordinates": [
          21.163029644463943,
          -70.19029332696337
        ]
      }
    },
    {
      "type": "Feature",
      "properties": {
        "norad_id": 32060,
        "name": "WORLDVIEW-1 (WV-1)",
        "group": "resource",
        "lat": 82.40916690110382,
        "lon": 35.28388256766998,
        "alt_km": 483.29324978423847,
        "timestamp": "2025-12-20T14:38:01.615041+00:00",
        "meta_object_name": "WORLDVIEW-1 (WV-1)",
        "meta_object_id": "2007-041A",
        "meta_epoch": "2025-12-20T01:38:54.044448",
        "meta_mean_motion": 15.24802283,
        "meta_eccentricity": 0.00010014,
        "meta_inclination": 97.3843,
        "meta_ra_of_asc_node": 111.447,
        "meta_arg_of_pericenter": 119.0221,
        "meta_mean_anomaly": 241.1117,
        "meta_ephemeris_type": 0,
        "meta_classification_type": "U",
        "meta_norad_cat_id": 32060,
        "meta_element_set_no": 999,
        "meta_rev_at_epoch": 1559,
        "meta_bstar": 0.00024422426,
        "meta_mean_motion_dot": 5.987e-05,
        "meta_mean_motion_ddot": 0,
        "tle_line1": "1 32060U 07041A   25354.06868107  .00005987  00000+0  24422-3 0  9993",
        "tle_line2": "2 32060  97.3843 111.4470 0001001 119.0221 241.1117 15.24802283 15595"
      },
      "geometry": {
        "type": "Point",
        "coordinates": [
          35.28388256766998,
          82.40916690110382
        ]
      }
    },
    {
      "type": "Feature",
      "properties": {
        "norad_id": 32289,
        "name": "YAOGAN-3",
        "group": "resource",
        "lat": 13.828323694217701,
        "lon": 19.2218863258294,
        "alt_km": 598.9073671215192,
        "timestamp": "2025-12-20T14:38:01.615053+00:00",
        "meta_object_name": "YAOGAN-3",
        "meta_object_id": "2007-055A",
        "meta_epoch": "2025-12-20T06:30:43.444224",
        "meta_mean_motion": 14.89890595,
        "meta_eccentricity": 0.00011568,
        "meta_inclination": 97.8357,
        "meta_ra_of_asc_node": 20.8291,
        "meta_arg_of_pericenter": 72.5234,
        "meta_mean_anomaly": 287.611,
        "meta_ephemeris_type": 0,
        "meta_classification_type": "U",
        "meta_norad_cat_id": 32289,
        "meta_element_set_no": 999,
        "meta_rev_at_epoch": 97921,
        "meta_bstar": 0.0001474977,
        "meta_mean_motion_dot": 1.363e-05,
        "meta_mean_motion_ddot": 0,
        "tle_line1": "1 32289U 07055A   25354.27133616  .00001363  00000+0  14750-3 0  9991",
        "tle_line2": "2 32289  97.8357  20.8291 0001156  72.5234 287.6110 14.89890595979214"
      },
      "geometry": {
        "type": "Point",
        "coordinates": [
          19.2218863258294,
          13.828323694217701
        ]
      }
    }
  ]
}